[Satellite]
VERSION=1.1
NAME=COMPASS-1
NICKNAME=COMPASS-1
TLE1=1 32787U 08021E   17186.04871027  .00000482  00000-0  52027-4 0  9994
TLE2=2 32787  97.5587 218.4871 0014220  80.4441 279.8385 14.92618339498112
